[{"OBJECT_NAME":"CELESTIS-17 & SHERPA-FX1","OBJECT_ID":"2021-006CB","EPOCH":"2026-03-09T15:26:05.078112","MEAN_MOTION":15.30994801,"ECCENTRICITY":0.000663,"INCLINATION":97.2397,"RA_OF_ASC_NODE":112.1052,"ARG_OF_PERICENTER":178.1385,"MEAN_ANOMALY":181.9882,"EPHEMERIS_TYPE":0,"CLASSIFICATION_TYPE":"U","NORAD_CAT_ID":47486,"ELEMENT_SET_NO":999,"REV_AT_EPOCH":28406,"BSTAR":0.00024301,"MEAN_MOTION_DOT":7.207e-5,"MEAN_MOTION_DDOT":0},{"OBJECT_NAME":"STARLINK-34064","OBJECT_ID":"2025-110U","EPOCH":"2026-03-09T01:12:57.606336","MEAN_MOTION":15.30194312,"ECCENTRICITY":8.547e-5,"INCLINATION":53.1596,"RA_OF_ASC_NODE":29.8024,"ARG_OF_PERICENTER":46.6386,"MEAN_ANOMALY":313.4686,"EPHEMERIS_TYPE":0,"CLASSIFICATION_TYPE":"U","NORAD_CAT_ID":64114,"ELEMENT_SET_NO":999,"REV_AT_EPOCH":4578,"BSTAR":0.00048077778,"MEAN_MOTION_DOT":0.00013904,"MEAN_MOTION_DDOT":0}]
