CELESTIS-17 & SHERPA-FX1
1 47486U 21006CB  26068.64311433  .00007207  00000+0  24301-3 0  9993
2 47486  97.2397 112.1052 0006630 178.1385 181.9882 15.30994801284065
STARLINK-34064          
1 64114U 25110U   26068.05066674  .00013904  00000+0  48078-3 0  9997
2 64114  53.1596  29.8024 0000854  46.6386 313.4686 15.30194312 45786
